{
  "type": "FeatureCollection",
  "features": [
    {
      "type": "Feature",
      "properties": {
        "ip": "185.246.188.105",
        "url": "https://nitter.net/pic/pbs.twimg.com%2Fprofile_images%2F1323749922005524485%2FLjJsuyU4_400x400.jpg",
        "city": "Amsterdam",
        "region": "North Holland",
        "country": "The Netherlands",
        "org": "FlokiNET Netherlands",
        "timezone": "Europe/Amsterdam",
        "source": "ip-api.com"
      },
      "geometry": {
        "type": "Point",
        "coordinates": [
          4.90414,
          52.3676
        ]
      }
    },
    {
      "type": "Feature",
      "properties": {
        "ip": "185.246.188.105",
        "url": "https://nitter.net/pic/media%2FGw6MIWRWIAEbNug.jpg%3Fname%3Dsmall%26format%3Dwebp",
        "city": "Amsterdam",
        "region": "North Holland",
        "country": "The Netherlands",
        "org": "FlokiNET Netherlands",
        "timezone": "Europe/Amsterdam",
        "source": "ip-api.com"
      },
      "geometry": {
        "type": "Point",
        "coordinates": [
          4.90414,
          52.3676
        ]
      }
    },
    {
      "type": "Feature",
      "properties": {
        "ip": "185.246.188.105",
        "url": "https://nitter.net/css/style.css?v=19",
        "city": "Amsterdam",
        "region": "North Holland",
        "country": "The Netherlands",
        "org": "FlokiNET Netherlands",
        "timezone": "Europe/Amsterdam",
        "source": "ip-api.com"
      },
      "geometry": {
        "type": "Point",
        "coordinates": [
          4.90414,
          52.3676
        ]
      }
    },
    {
      "type": "Feature",
      "properties": {
        "ip": "185.246.188.105",
        "url": "https://nitter.net/pic/media%2FGw93sjDWwAA-uwj.jpg%3Athumb",
        "city": "Amsterdam",
        "region": "North Holland",
        "country": "The Netherlands",
        "org": "FlokiNET Netherlands",
        "timezone": "Europe/Amsterdam",
        "source": "ip-api.com"
      },
      "geometry": {
        "type": "Point",
        "coordinates": [
          4.90414,
          52.3676
        ]
      }
    },
    {
      "type": "Feature",
      "properties": {
        "ip": "185.246.188.105",
        "url": "https://nitter.net/pic/profile_images%2F1869841995943874560%2FzRpmFcYh_bigger.jpg",
        "city": "Amsterdam",
        "region": "North Holland",
        "country": "The Netherlands",
        "org": "FlokiNET Netherlands",
        "timezone": "Europe/Amsterdam",
        "source": "ip-api.com"
      },
      "geometry": {
        "type": "Point",
        "coordinates": [
          4.90414,
          52.3676
        ]
      }
    },
    {
      "type": "Feature",
      "properties": {
        "ip": "185.246.188.105",
        "url": "https://nitter.net/logo.png",
        "city": "Amsterdam",
        "region": "North Holland",
        "country": "The Netherlands",
        "org": "FlokiNET Netherlands",
        "timezone": "Europe/Amsterdam",
        "source": "ip-api.com"
      },
      "geometry": {
        "type": "Point",
        "coordinates": [
          4.90414,
          52.3676
        ]
      }
    },
    {
      "type": "Feature",
      "properties": {
        "ip": "185.246.188.105",
        "url": "https://nitter.net/pic/https%3A%2F%2Fpbs.twimg.com%2Fprofile_banners%2F14159148%2F1607000252%2F1500x500",
        "city": "Amsterdam",
        "region": "North Holland",
        "country": "The Netherlands",
        "org": "FlokiNET Netherlands",
        "timezone": "Europe/Amsterdam",
        "source": "ip-api.com"
      },
      "geometry": {
        "type": "Point",
        "coordinates": [
          4.90414,
          52.3676
        ]
      }
    },
    {
      "type": "Feature",
      "properties": {
        "ip": "185.246.188.105",
        "url": "https://nitter.net/site.webmanifest",
        "city": "Amsterdam",
        "region": "North Holland",
        "country": "The Netherlands",
        "org": "FlokiNET Netherlands",
        "timezone": "Europe/Amsterdam",
        "source": "ip-api.com"
      },
      "geometry": {
        "type": "Point",
        "coordinates": [
          4.90414,
          52.3676
        ]
      }
    },
    {
      "type": "Feature",
      "properties": {
        "ip": "185.246.188.105",
        "url": "https://nitter.net/pic/media%2FGw8-bAEWMAA4sCl.jpg%3Fname%3Dsmall%26format%3Dwebp",
        "city": "Amsterdam",
        "region": "North Holland",
        "country": "The Netherlands",
        "org": "FlokiNET Netherlands",
        "timezone": "Europe/Amsterdam",
        "source": "ip-api.com"
      },
      "geometry": {
        "type": "Point",
        "coordinates": [
          4.90414,
          52.3676
        ]
      }
    },
    {
      "type": "Feature",
      "properties": {
        "ip": "185.246.188.105",
        "url": "https://nitter.net/pic/amplify_video_thumb%2F1950251370411376641%2Fimg%2F7qFD1ucS-NglKvbL.jpg%3Fname%3Dsmall%26format%3Dwebp",
        "city": "Amsterdam",
        "region": "North Holland",
        "country": "The Netherlands",
        "org": "FlokiNET Netherlands",
        "timezone": "Europe/Amsterdam",
        "source": "ip-api.com"
      },
      "geometry": {
        "type": "Point",
        "coordinates": [
          4.90414,
          52.3676
        ]
      }
    },
    {
      "type": "Feature",
      "properties": {
        "ip": "185.246.188.105",
        "url": "https://nitter.net/fonts/fontello.woff2?21002321",
        "city": "Amsterdam",
        "region": "North Holland",
        "country": "The Netherlands",
        "org": "FlokiNET Netherlands",
        "timezone": "Europe/Amsterdam",
        "source": "ip-api.com"
      },
      "geometry": {
        "type": "Point",
        "coordinates": [
          4.90414,
          52.3676
        ]
      }
    },
    {
      "type": "Feature",
      "properties": {
        "ip": "185.246.188.105",
        "url": "https://nitter.net/pic/media%2FGw-Y6V_W0AIcaqZ.jpg%3Fname%3Dsmall%26format%3Dwebp",
        "city": "Amsterdam",
        "region": "North Holland",
        "country": "The Netherlands",
        "org": "FlokiNET Netherlands",
        "timezone": "Europe/Amsterdam",
        "source": "ip-api.com"
      },
      "geometry": {
        "type": "Point",
        "coordinates": [
          4.90414,
          52.3676
        ]
      }
    },
    {
      "type": "Feature",
      "properties": {
        "ip": "185.246.188.105",
        "url": "https://nitter.net/pic/media%2FGxDZE2OWoAAwrQB.jpg%3Athumb",
        "city": "Amsterdam",
        "region": "North Holland",
        "country": "The Netherlands",
        "org": "FlokiNET Netherlands",
        "timezone": "Europe/Amsterdam",
        "source": "ip-api.com"
      },
      "geometry": {
        "type": "Point",
        "coordinates": [
          4.90414,
          52.3676
        ]
      }
    },
    {
      "type": "Feature",
      "properties": {
        "ip": "185.246.188.105",
        "url": "https://nitter.net/pic/media%2FGw_RHIGXUAAZm-X.jpg%3Fname%3Dsmall%26format%3Dwebp",
        "city": "Amsterdam",
        "region": "North Holland",
        "country": "The Netherlands",
        "org": "FlokiNET Netherlands",
        "timezone": "Europe/Amsterdam",
        "source": "ip-api.com"
      },
      "geometry": {
        "type": "Point",
        "coordinates": [
          4.90414,
          52.3676
        ]
      }
    },
    {
      "type": "Feature",
      "properties": {
        "ip": "185.246.188.105",
        "url": "https://nitter.net/pic/media%2FGxB2HdxWkAE6bwo.jpg%3Athumb",
        "city": "Amsterdam",
        "region": "North Holland",
        "country": "The Netherlands",
        "org": "FlokiNET Netherlands",
        "timezone": "Europe/Amsterdam",
        "source": "ip-api.com"
      },
      "geometry": {
        "type": "Point",
        "coordinates": [
          4.90414,
          52.3676
        ]
      }
    },
    {
      "type": "Feature",
      "properties": {
        "ip": "185.246.188.105",
        "url": "https://nitter.net/pic/media%2FGwuUAmUWIAATuid.jpg%3Athumb",
        "city": "Amsterdam",
        "region": "North Holland",
        "country": "The Netherlands",
        "org": "FlokiNET Netherlands",
        "timezone": "Europe/Amsterdam",
        "source": "ip-api.com"
      },
      "geometry": {
        "type": "Point",
        "coordinates": [
          4.90414,
          52.3676
        ]
      }
    },
    {
      "type": "Feature",
      "properties": {
        "ip": "185.246.188.105",
        "url": "https://nitter.net/pic/media%2FGxB2HdxWkAE6bwo.jpg%3Fname%3Dsmall%26format%3Dwebp",
        "city": "Amsterdam",
        "region": "North Holland",
        "country": "The Netherlands",
        "org": "FlokiNET Netherlands",
        "timezone": "Europe/Amsterdam",
        "source": "ip-api.com"
      },
      "geometry": {
        "type": "Point",
        "coordinates": [
          4.90414,
          52.3676
        ]
      }
    },
    {
      "type": "Feature",
      "properties": {
        "ip": "185.246.188.105",
        "url": "https://nitter.net/pic/media%2FGwuS7s9W4AE0dnO.jpg%3Athumb",
        "city": "Amsterdam",
        "region": "North Holland",
        "country": "The Netherlands",
        "org": "FlokiNET Netherlands",
        "timezone": "Europe/Amsterdam",
        "source": "ip-api.com"
      },
      "geometry": {
        "type": "Point",
        "coordinates": [
          4.90414,
          52.3676
        ]
      }
    },
    {
      "type": "Feature",
      "properties": {
        "ip": "185.246.188.105",
        "url": "https://nitter.net/UN",
        "city": "Amsterdam",
        "region": "North Holland",
        "country": "The Netherlands",
        "org": "FlokiNET Netherlands",
        "timezone": "Europe/Amsterdam",
        "source": "ip-api.com"
      },
      "geometry": {
        "type": "Point",
        "coordinates": [
          4.90414,
          52.3676
        ]
      }
    },
    {
      "type": "Feature",
      "properties": {
        "ip": "185.246.188.105",
        "url": "https://nitter.net/pic/media%2FGw-GMDqXwAAzIlA.jpg%3Fname%3Dsmall%26format%3Dwebp",
        "city": "Amsterdam",
        "region": "North Holland",
        "country": "The Netherlands",
        "org": "FlokiNET Netherlands",
        "timezone": "Europe/Amsterdam",
        "source": "ip-api.com"
      },
      "geometry": {
        "type": "Point",
        "coordinates": [
          4.90414,
          52.3676
        ]
      }
    },
    {
      "type": "Feature",
      "properties": {
        "ip": "185.246.188.105",
        "url": "https://nitter.net/pic/amplify_video_thumb%2F1950336747247640576%2Fimg%2FP3MEYZkyQrX3e-cx.jpg%3Fname%3Dsmall%26format%3Dwebp",
        "city": "Amsterdam",
        "region": "North Holland",
        "country": "The Netherlands",
        "org": "FlokiNET Netherlands",
        "timezone": "Europe/Amsterdam",
        "source": "ip-api.com"
      },
      "geometry": {
        "type": "Point",
        "coordinates": [
          4.90414,
          52.3676
        ]
      }
    },
    {
      "type": "Feature",
      "properties": {
        "ip": "185.246.188.105",
        "url": "https://nitter.net/pic/media%2FGw929P5WIAARTZS.jpg%3Athumb",
        "city": "Amsterdam",
        "region": "North Holland",
        "country": "The Netherlands",
        "org": "FlokiNET Netherlands",
        "timezone": "Europe/Amsterdam",
        "source": "ip-api.com"
      },
      "geometry": {
        "type": "Point",
        "coordinates": [
          4.90414,
          52.3676
        ]
      }
    },
    {
      "type": "Feature",
      "properties": {
        "ip": "185.246.188.105",
        "url": "https://nitter.net/pic/media%2FGw_RNdjWIAAWn0n.jpg%3Fname%3Dsmall%26format%3Dwebp",
        "city": "Amsterdam",
        "region": "North Holland",
        "country": "The Netherlands",
        "org": "FlokiNET Netherlands",
        "timezone": "Europe/Amsterdam",
        "source": "ip-api.com"
      },
      "geometry": {
        "type": "Point",
        "coordinates": [
          4.90414,
          52.3676
        ]
      }
    },
    {
      "type": "Feature",
      "properties": {
        "ip": "185.246.188.105",
        "url": "https://nitter.net/pic/profile_images%2F808330362417979392%2FAdiQ86lk_bigger.jpg",
        "city": "Amsterdam",
        "region": "North Holland",
        "country": "The Netherlands",
        "org": "FlokiNET Netherlands",
        "timezone": "Europe/Amsterdam",
        "source": "ip-api.com"
      },
      "geometry": {
        "type": "Point",
        "coordinates": [
          4.90414,
          52.3676
        ]
      }
    },
    {
      "type": "Feature",
      "properties": {
        "ip": "185.246.188.105",
        "url": "https://nitter.net/pic/media%2FGxAmykLXwAAah_s.jpg%3Fname%3Dsmall%26format%3Dwebp",
        "city": "Amsterdam",
        "region": "North Holland",
        "country": "The Netherlands",
        "org": "FlokiNET Netherlands",
        "timezone": "Europe/Amsterdam",
        "source": "ip-api.com"
      },
      "geometry": {
        "type": "Point",
        "coordinates": [
          4.90414,
          52.3676
        ]
      }
    },
    {
      "type": "Feature",
      "properties": {
        "ip": "185.246.188.105",
        "url": "https://nitter.net/pic/amplify_video_thumb%2F1949882811407572992%2Fimg%2F5fUJ2-_b3Wo12gbC.jpg%3Fname%3Dsmall%26format%3Dwebp",
        "city": "Amsterdam",
        "region": "North Holland",
        "country": "The Netherlands",
        "org": "FlokiNET Netherlands",
        "timezone": "Europe/Amsterdam",
        "source": "ip-api.com"
      },
      "geometry": {
        "type": "Point",
        "coordinates": [
          4.90414,
          52.3676
        ]
      }
    },
    {
      "type": "Feature",
      "properties": {
        "ip": "185.246.188.105",
        "url": "https://nitter.net/pic/media%2FGw8-bAEWMAA4sCl.jpg%3Athumb",
        "city": "Amsterdam",
        "region": "North Holland",
        "country": "The Netherlands",
        "org": "FlokiNET Netherlands",
        "timezone": "Europe/Amsterdam",
        "source": "ip-api.com"
      },
      "geometry": {
        "type": "Point",
        "coordinates": [
          4.90414,
          52.3676
        ]
      }
    },
    {
      "type": "Feature",
      "properties": {
        "ip": "185.246.188.105",
        "url": "https://nitter.net/pic/profile_images%2F1323749922005524485%2FLjJsuyU4_bigger.jpg",
        "city": "Amsterdam",
        "region": "North Holland",
        "country": "The Netherlands",
        "org": "FlokiNET Netherlands",
        "timezone": "Europe/Amsterdam",
        "source": "ip-api.com"
      },
      "geometry": {
        "type": "Point",
        "coordinates": [
          4.90414,
          52.3676
        ]
      }
    },
    {
      "type": "Feature",
      "properties": {
        "ip": "185.246.188.105",
        "url": "https://nitter.net/pic/profile_images%2F1499825740518510600%2F5S9Cc4Ts_bigger.jpg",
        "city": "Amsterdam",
        "region": "North Holland",
        "country": "The Netherlands",
        "org": "FlokiNET Netherlands",
        "timezone": "Europe/Amsterdam",
        "source": "ip-api.com"
      },
      "geometry": {
        "type": "Point",
        "coordinates": [
          4.90414,
          52.3676
        ]
      }
    },
    {
      "type": "Feature",
      "properties": {
        "ip": "185.246.188.105",
        "url": "https://nitter.net/pic/media%2FGw7mdY7WwAArkX_.jpg%3Fname%3Dsmall%26format%3Dwebp",
        "city": "Amsterdam",
        "region": "North Holland",
        "country": "The Netherlands",
        "org": "FlokiNET Netherlands",
        "timezone": "Europe/Amsterdam",
        "source": "ip-api.com"
      },
      "geometry": {
        "type": "Point",
        "coordinates": [
          4.90414,
          52.3676
        ]
      }
    },
    {
      "type": "Feature",
      "properties": {
        "ip": "185.246.188.105",
        "url": "https://nitter.net/pic/profile_images%2F1352627231420461057%2FqgDQ2BN4_bigger.jpg",
        "city": "Amsterdam",
        "region": "North Holland",
        "country": "The Netherlands",
        "org": "FlokiNET Netherlands",
        "timezone": "Europe/Amsterdam",
        "source": "ip-api.com"
      },
      "geometry": {
        "type": "Point",
        "coordinates": [
          4.90414,
          52.3676
        ]
      }
    },
    {
      "type": "Feature",
      "properties": {
        "ip": "185.246.188.105",
        "url": "https://nitter.net/favicon-32x32.png",
        "city": "Amsterdam",
        "region": "North Holland",
        "country": "The Netherlands",
        "org": "FlokiNET Netherlands",
        "timezone": "Europe/Amsterdam",
        "source": "ip-api.com"
      },
      "geometry": {
        "type": "Point",
        "coordinates": [
          4.90414,
          52.3676
        ]
      }
    },
    {
      "type": "Feature",
      "properties": {
        "ip": "185.246.188.105",
        "url": "https://nitter.net/pic/profile_images%2F1500812588531257344%2FMjA_Vl1f_bigger.png",
        "city": "Amsterdam",
        "region": "North Holland",
        "country": "The Netherlands",
        "org": "FlokiNET Netherlands",
        "timezone": "Europe/Amsterdam",
        "source": "ip-api.com"
      },
      "geometry": {
        "type": "Point",
        "coordinates": [
          4.90414,
          52.3676
        ]
      }
    },
    {
      "type": "Feature",
      "properties": {
        "ip": "185.246.188.105",
        "url": "https://nitter.net/pic/media%2FGw-Y6V_W0AIcaqZ.jpg%3Athumb",
        "city": "Amsterdam",
        "region": "North Holland",
        "country": "The Netherlands",
        "org": "FlokiNET Netherlands",
        "timezone": "Europe/Amsterdam",
        "source": "ip-api.com"
      },
      "geometry": {
        "type": "Point",
        "coordinates": [
          4.90414,
          52.3676
        ]
      }
    },
    {
      "type": "Feature",
      "properties": {
        "ip": "185.246.188.105",
        "url": "https://nitter.net/pic/media%2FGw9fuh_WMAA4pZf.jpg%3Fname%3Dsmall%26format%3Dwebp",
        "city": "Amsterdam",
        "region": "North Holland",
        "country": "The Netherlands",
        "org": "FlokiNET Netherlands",
        "timezone": "Europe/Amsterdam",
        "source": "ip-api.com"
      },
      "geometry": {
        "type": "Point",
        "coordinates": [
          4.90414,
          52.3676
        ]
      }
    },
    {
      "type": "Feature",
      "properties": {
        "ip": "185.246.188.105",
        "url": "https://nitter.net/pic/media%2FGxDZE2OWoAAwrQB.jpg%3Fname%3Dsmall%26format%3Dwebp",
        "city": "Amsterdam",
        "region": "North Holland",
        "country": "The Netherlands",
        "org": "FlokiNET Netherlands",
        "timezone": "Europe/Amsterdam",
        "source": "ip-api.com"
      },
      "geometry": {
        "type": "Point",
        "coordinates": [
          4.90414,
          52.3676
        ]
      }
    },
    {
      "type": "Feature",
      "properties": {
        "ip": "185.246.188.105",
        "url": "https://nitter.net/pic/profile_images%2F815358035505905664%2FsnuVhCJS_bigger.jpg",
        "city": "Amsterdam",
        "region": "North Holland",
        "country": "The Netherlands",
        "org": "FlokiNET Netherlands",
        "timezone": "Europe/Amsterdam",
        "source": "ip-api.com"
      },
      "geometry": {
        "type": "Point",
        "coordinates": [
          4.90414,
          52.3676
        ]
      }
    },
    {
      "type": "Feature",
      "properties": {
        "ip": "185.246.188.105",
        "url": "https://nitter.net/pic/card_img%2F1950323414578974721%2FwS7TC1i2%3Fformat%3Djpg%26name%3D800x419",
        "city": "Amsterdam",
        "region": "North Holland",
        "country": "The Netherlands",
        "org": "FlokiNET Netherlands",
        "timezone": "Europe/Amsterdam",
        "source": "ip-api.com"
      },
      "geometry": {
        "type": "Point",
        "coordinates": [
          4.90414,
          52.3676
        ]
      }
    },
    {
      "type": "Feature",
      "properties": {
        "ip": "185.246.188.105",
        "url": "https://nitter.net/pic/card_img%2F1948534405070286848%2F1X5dDYxJ%3Fformat%3Djpg%26name%3D800x419",
        "city": "Amsterdam",
        "region": "North Holland",
        "country": "The Netherlands",
        "org": "FlokiNET Netherlands",
        "timezone": "Europe/Amsterdam",
        "source": "ip-api.com"
      },
      "geometry": {
        "type": "Point",
        "coordinates": [
          4.90414,
          52.3676
        ]
      }
    },
    {
      "type": "Feature",
      "properties": {
        "ip": "185.246.188.105",
        "url": "https://nitter.net/pic/profile_images%2F1567958925890183171%2F4hM2lg9J_bigger.jpg",
        "city": "Amsterdam",
        "region": "North Holland",
        "country": "The Netherlands",
        "org": "FlokiNET Netherlands",
        "timezone": "Europe/Amsterdam",
        "source": "ip-api.com"
      },
      "geometry": {
        "type": "Point",
        "coordinates": [
          4.90414,
          52.3676
        ]
      }
    },
    {
      "type": "Feature",
      "properties": {
        "ip": "185.246.188.105",
        "url": "https://nitter.net/css/themes/nitter.css",
        "city": "Amsterdam",
        "region": "North Holland",
        "country": "The Netherlands",
        "org": "FlokiNET Netherlands",
        "timezone": "Europe/Amsterdam",
        "source": "ip-api.com"
      },
      "geometry": {
        "type": "Point",
        "coordinates": [
          4.90414,
          52.3676
        ]
      }
    },
    {
      "type": "Feature",
      "properties": {
        "ip": "185.246.188.105",
        "url": "https://nitter.net/css/fontello.css?v=2",
        "city": "Amsterdam",
        "region": "North Holland",
        "country": "The Netherlands",
        "org": "FlokiNET Netherlands",
        "timezone": "Europe/Amsterdam",
        "source": "ip-api.com"
      },
      "geometry": {
        "type": "Point",
        "coordinates": [
          4.90414,
          52.3676
        ]
      }
    },
    {
      "type": "Feature",
      "properties": {
        "ip": "185.246.188.105",
        "url": "https://nitter.net/pic/amplify_video_thumb%2F1950251370411376641%2Fimg%2F7qFD1ucS-NglKvbL.jpg%3Athumb",
        "city": "Amsterdam",
        "region": "North Holland",
        "country": "The Netherlands",
        "org": "FlokiNET Netherlands",
        "timezone": "Europe/Amsterdam",
        "source": "ip-api.com"
      },
      "geometry": {
        "type": "Point",
        "coordinates": [
          4.90414,
          52.3676
        ]
      }
    },
    {
      "type": "Feature",
      "properties": {
        "ip": "185.246.188.105",
        "url": "https://nitter.net/pic/media%2FGw_RI8xXgAAO4RL.jpg%3Fname%3Dsmall%26format%3Dwebp",
        "city": "Amsterdam",
        "region": "North Holland",
        "country": "The Netherlands",
        "org": "FlokiNET Netherlands",
        "timezone": "Europe/Amsterdam",
        "source": "ip-api.com"
      },
      "geometry": {
        "type": "Point",
        "coordinates": [
          4.90414,
          52.3676
        ]
      }
    },
    {
      "type": "Feature",
      "properties": {
        "ip": "185.246.188.105",
        "url": "https://nitter.net/pic/media%2FGw-GMDqXwAAzIlA.jpg%3Athumb",
        "city": "Amsterdam",
        "region": "North Holland",
        "country": "The Netherlands",
        "org": "FlokiNET Netherlands",
        "timezone": "Europe/Amsterdam",
        "source": "ip-api.com"
      },
      "geometry": {
        "type": "Point",
        "coordinates": [
          4.90414,
          52.3676
        ]
      }
    },
    {
      "type": "Feature",
      "properties": {
        "ip": "185.246.188.105",
        "url": "https://nitter.net/pic/media%2FGxCCoKGXkAASW46.jpg%3Fname%3Dsmall%26format%3Dwebp",
        "city": "Amsterdam",
        "region": "North Holland",
        "country": "The Netherlands",
        "org": "FlokiNET Netherlands",
        "timezone": "Europe/Amsterdam",
        "source": "ip-api.com"
      },
      "geometry": {
        "type": "Point",
        "coordinates": [
          4.90414,
          52.3676
        ]
      }
    },
    {
      "type": "Feature",
      "properties": {
        "ip": "185.246.188.105",
        "url": "https://nitter.net/pic/media%2FGw929P5WIAARTZS.jpg%3Fname%3Dsmall%26format%3Dwebp",
        "city": "Amsterdam",
        "region": "North Holland",
        "country": "The Netherlands",
        "org": "FlokiNET Netherlands",
        "timezone": "Europe/Amsterdam",
        "source": "ip-api.com"
      },
      "geometry": {
        "type": "Point",
        "coordinates": [
          4.90414,
          52.3676
        ]
      }
    },
    {
      "type": "Feature",
      "properties": {
        "ip": "185.246.188.105",
        "url": "https://nitter.net/pic/media%2FGw93sjDWwAA-uwj.jpg%3Fname%3Dsmall%26format%3Dwebp",
        "city": "Amsterdam",
        "region": "North Holland",
        "country": "The Netherlands",
        "org": "FlokiNET Netherlands",
        "timezone": "Europe/Amsterdam",
        "source": "ip-api.com"
      },
      "geometry": {
        "type": "Point",
        "coordinates": [
          4.90414,
          52.3676
        ]
      }
    },
    {
      "type": "Feature",
      "properties": {
        "ip": "185.246.188.105",
        "url": "https://nitter.net/pic/media%2FGw_RGLdXoAA0CzH.jpg%3Fname%3Dsmall%26format%3Dwebp",
        "city": "Amsterdam",
        "region": "North Holland",
        "country": "The Netherlands",
        "org": "FlokiNET Netherlands",
        "timezone": "Europe/Amsterdam",
        "source": "ip-api.com"
      },
      "geometry": {
        "type": "Point",
        "coordinates": [
          4.90414,
          52.3676
        ]
      }
    }
  ]
}